BSAT-3B                 
1 37207U 10056B   18110.95996071 -.00000365  00000-0  00000-0 0  9993
2 37207   0.0420  13.5201 0004021 339.0066 311.8933  1.00269808 22357
BEIDOU 6                
1 37210U 10057A   18110.85785545 -.00000126  00000-0  00000+0 0  9993
2 37210   0.8045  47.6359 0004084 258.7732  11.2651  1.00272170 27416
SKYTERRA 1              
1 37218U 10061A   18110.63234608 -.00000132  00000-0  00000-0 0  9999
2 37218   2.8500 335.3617 0001951  14.2985 345.3244  1.00270877 27333
ZHONGXING-20A           
1 37234U 10064A   18110.85192341 -.00000351  00000-0  00000-0 0  9994
2 37234   0.1017 108.4073 0005255 274.1994 262.9892  1.00268302 27151
HYLAS 1                 
1 37237U 10065A   18111.39365762 -.00000249  00000-0  00000+0 0  9992
2 37237   0.0209 315.1449 0004276  42.7495 319.7398  1.00271259 27132
INTELSAT 17 (IS-17)     
1 37238U 10065B   18110.90611807 -.00000016  00000-0  00000-0 0  9996
2 37238   0.0144 223.7076 0002561 164.0955 213.3255  1.00271663 23546
EUTELSAT KA-SAT 9A      
1 37258U 10069A   18111.39332853  .00000046  00000-0  00000+0 0  9998
2 37258   0.0222 262.7048 0003297 139.1293 318.1932  1.00271876 26952
HISPASAT 1E             
1 37264U 10070A   18111.19910413 -.00000231  00000-0  00000+0 0  9996
2 37264   0.0604 100.3680 0003171 313.2170 197.3085  1.00270591 26793
KOREASAT 6              
1 37265U 10070B   18111.42349226 -.00000378  00000-0  00000+0 0  9993
2 37265   0.0136  63.9600 0001828 304.1018 109.8268  1.00273147 26811
INTELSAT NEW DAWN       
1 37392U 11016A   18110.83255705  .00000142  00000-0  00000+0 0  9995
2 37392   0.0155 224.2358 0000323  63.1015 254.0414  1.00272558 25644
YAHSAT 1A               
1 37393U 11016B   18110.85745241  .00000087  00000-0  00000+0 0  9995
2 37393   0.0146 250.2259 0001334 128.7034 191.1463  1.00273767 25688
TELSTAR 14R             
1 37602U 11021A   18111.45820745 -.00000296  00000-0  00000+0 0  9997
2 37602   0.0360  31.3642 0002150   1.4635 278.6021  1.00270542 25919
GSAT-8                  
1 37605U 11022A   18111.52823802  .00000069  00000-0  00000+0 0  9993
2 37605   0.1088 101.3341 0004802 199.3537 154.0578  1.00271521 25370
ST-2                    
1 37606U 11022B   18111.46260819 -.00000227  00000-0  00000+0 0  9997
2 37606   0.0150 172.8422 0001335 239.9011  51.2835  1.00271295 25382
CHINASAT 10 (ZX 10)     
1 37677U 11026A   18111.23966807 -.00000367  00000-0  00000+0 0  9999
2 37677   0.0354 255.3912 0000900 266.8484 243.8157  1.00271276 25102
TIANLIAN 1-02           
1 37737U 11032A   18111.50741308  .00000014  00000-0  00000+0 0  9998
2 37737   2.6166  74.3367 0005381 225.8041 268.8159  1.00272825 24854
GSAT-12                 
1 37746U 11034A   18110.95109722 -.00000179  00000-0  00000-0 0  9990
2 37746   0.0778 102.8360 0010182 345.3798 186.1554  1.00271617 13607
SES-3                   
1 37748U 11035A   18110.66184331 -.00000115  00000-0  00000+0 0  9999
2 37748   0.0416  68.4844 0001761 309.5177 325.9700  1.00271880 24811
KAZSAT-2                
1 37749U 11035B   18110.95976242 -.00000213  00000-0  00000-0 0  9992
2 37749   0.0261 282.8826 0001146 164.6886 193.4426  1.00272021 23524
ASTRA 1N                
1 37775U 11041A   18110.82985274  .00000106  00000-0  00000+0 0  9998
2 37775   0.0498   6.6875 0005472  29.4521 130.6594  1.00272203 24523
BSAT-3C (JCSAT-110R)    
1 37776U 11041B   18110.95996071 -.00000365  00000-0  00000-0 0  9999
2 37776   0.0490  80.1170 0000209 198.5423  25.8853  1.00273177 20613
PAKSAT-1R               
1 37779U 11042A   18111.40462644  .00000138  00000-0  00000+0 0  9994
2 37779   0.0176 292.9049 0004742  83.2738  16.8685  1.00272534 24411
CHINASAT 1A (ZX 1A)     
1 37804U 11047A   18110.85192341 -.00000352  00000-0  00000-0 0  9990
2 37804   0.0493  28.0730 0002917 324.5577 292.8102  1.00270177 24209
COSMOS 2473             
1 37806U 11048A   18110.45848844 -.00000120  00000-0  00000+0 0  9997
2 37806   0.0474  88.8081 0003458 330.2415 300.9889  1.00271677 24196
SES-2                   
1 37809U 11049A   18110.80865444 -.00000210  00000-0  00000+0 0  9995
2 37809   0.0437  68.7049 0002626 312.6144  31.6321  1.00271913 24145
ARABSAT-5C              
1 37810U 11049B   18111.41434917  .00000107  00000-0  00000+0 0  9996
2 37810   0.0656  25.1768 0003006   5.9666 347.4428  1.00273242 24041
EUTELSAT 7 WEST A       
1 37816U 11051A   18110.44113695 -.00000072  00000-0  00000-0 0  9997
2 37816   0.0807  48.3397 0001716 105.3153 206.3581  1.00273030 24028
QUETZSAT 1              
1 37826U 11054A   18110.52348733 -.00000255  00000-0  00000+0 0  9995
2 37826   0.0231 327.1041 0002318  70.2581 282.6532  1.00271741 24219
INTELSAT 18 (IS-18)     
1 37834U 11056A   18110.86186830  .00000039  00000-0  00000+0 0  9990
2 37834   0.0188 244.9758 0002054 148.0619 306.1018  1.00271582 23979
EUTELSAT 16A            
1 37836U 11057A   18111.41434917  .00000088  00000-0  00000+0 0  9991
2 37836   0.0694  17.5583 0004988  25.3008 331.7201  1.00273187 23926
VIASAT-1                
1 37843U 11059A   18110.65948794 -.00000036  00000-0  00000-0 0  9994
2 37843   0.0189 239.4035 0002325 143.0497 308.5406  1.00270078 17459
ASIASAT 7               
1 37933U 11069A   18110.96062510 -.00000349  00000-0  00000-0 0  9999
2 37933   0.0183 267.3918 0001581  97.1823 295.7240  1.00274121 14989
LUCH 5A                 
1 37951U 11074B   18110.85925123 -.00000058  00000-0  00000+0 0  9997
2 37951   1.7840 153.6650 0004337 219.1973 312.2761  1.00271732 23316
NIGCOMSAT 1R            
1 38014U 11077A   18111.15548885  .00000130  00000-0  00000+0 0  9991
2 38014   0.0120 262.3165 0002461 107.4396 297.8864  1.00270298 23153
FENGYUN 2F              
1 38049U 12002A   18110.70466935 -.00000368  00000-0  00000-0 0  9998
2 38049   2.3438  78.1514 0001481 200.6705 295.2452  1.00260994 23012
SES-4                   
1 38087U 12007A   18111.12045174 -.00000184  00000-0  00000+0 0  9995
2 38087   0.0156 284.3002 0002161 108.5963 197.5738  1.00270139 22615
BEIDOU 11               
1 38091U 12008A   18110.91139076  .00000043  00000-0  00000-0 0  9996
2 38091   2.1896  61.1617 0004420 257.1541 277.3701  1.00270978 22607
INTELSAT 22 (IS-22)     
1 38098U 12011A   18110.22135217 -.00000071  00000-0  00000-0 0  9996
2 38098   0.0120 286.5475 0002605 118.4094 315.0694  1.00272425 21969
APSTAR 7                
1 38107U 12013A   18110.84490566 -.00000116  00000-0  00000-0 0  9998
2 38107   0.0138  45.3186 0002105 348.5740 195.6481  1.00271937 22298
YAHSAT 1B               
1 38245U 12016A   18110.28913139  .00000114  00000-0  00000-0 0  9995
2 38245   0.0321 102.7518 0000815 246.6615  10.5899  1.00272898 15755
JCSAT-13                
1 38331U 12023A   18111.07477513 -.00000371  00000-0  00000+0 0  9993
2 38331   0.0126 237.3199 0002512 163.5040 319.1980  1.00272563 21709
VINASAT-2               
1 38332U 12023B   18110.97711396 -.00000343  00000-0  00000+0 0  9991
2 38332   0.0351  64.4677 0002180 337.9687 290.1735  1.00272422 21749
NIMIQ 6                 
1 38342U 12026A   18110.67338570 -.00000187  00000-0  00000+0 0  9997
2 38342   0.0071 212.4908 0002713 170.1046 337.4166  1.00271333 21720
CHINASAT 2A (ZX 2A)     
1 38352U 12028A   18111.41991559 -.00000308  00000-0  00000+0 0  9990
2 38352   0.0414  53.6785 0002129 337.5520  67.6227  1.00269748 21779
INTELSAT 19 (IS-19)     
1 38356U 12030A   18110.95840046 -.00000070  00000-0  00000+0 0  9995
2 38356   0.0116  52.0610 0002911 340.7377 327.2227  1.00273010 21645
ECHOSTAR 17             
1 38551U 12035A   18110.71769111 -.00000089  00000-0  00000+0 0  9994
2 38551   0.0198 228.9263 0002090 156.7196 334.3644  1.00269887 21258
METEOSAT-10 (MSG-3)     
1 38552U 12035B   18110.39472182  .00000052  00000-0  00000+0 0  9997
2 38552   0.9244  30.1296 0000209 338.3722 351.5028  1.00279386 21344
SES-5                   
1 38652U 12036A   18111.17962722  .00000019  00000-0  00000+0 0  9993
2 38652   0.0271 257.8443 0002066 114.9511 266.0503  1.00271573 21196
TIANLIAN 1-03           
1 38730U 12040A   18111.38905889  .00000056  00000-0  00000+0 0  9990
2 38730   0.1197 267.2411 0004417 178.0375 274.7739  1.00270145 21126
INTELSAT 20 (IS-20)     
1 38740U 12043A   18111.22838543 -.00000040  00000-0  00000+0 0  9993
2 38740   0.0217 187.9647 0001404   6.9363 165.0949  1.00270216 20962
HYLAS 2                 
1 38741U 12043B   18110.33506870  .00000142  00000-0  00000+0 0  9992
2 38741   0.0183 253.6744 0001539 128.2461 338.0911  1.00270008 20971
INTELSAT 21 (IS-21)     
1 38749U 12045A   18110.58165704 -.00000298  00000-0  00000-0 0  9990
2 38749   0.0165 266.1701 0002056 110.9691 342.8721  1.00272110 20685
ASTRA 2F                
1 38778U 12051A   18111.34012811  .00000134  00000-0  00000+0 0  9991
2 38778   0.0527 225.8877 0001233  48.9309  85.1696  1.00271096 20429
GSAT-10                 
1 38779U 12051B   18111.18818269 -.00000181  00000-0  00000+0 0  9998
2 38779   0.0233 177.4238 0002916 222.1249 320.4753  1.00272031 20424
INTELSAT 23 (IS-23)     
1 38867U 12057A   18110.56777973 -.00000297  00000-0  00000-0 0  9998
2 38867   0.0096 185.0591 0001741 193.0385 341.9130  1.00270903 20139
BEIDOU 16               
1 38953U 12059A   18110.95109722 -.00000190  00000-0  00000-0 0  9992
2 38953   1.7365  80.9252 0001409 255.8188 298.6950  1.00272271 20170
LUCH 5B                 
1 38977U 12061A   18111.42893150 -.00000145  00000-0  00000+0 0  9998
2 38977   4.1566  72.4986 0005138 297.7935 337.3194  1.00273005 20306
YAMAL 300K              
1 38978U 12061B   18111.52703206  .00000055  00000-0  00000+0 0  9991
2 38978   0.0106 239.6490 0000611  14.6172 327.9532  1.00272160 20008
STAR ONE C3             
1 38991U 12062A   18110.74215935 -.00000263  00000-0  00000+0 0  9999
2 38991   0.0628  87.0052 0002890 297.1511  16.7966  1.00271169 19984
